OBJECT_NAME,OBJECT_ID,EPOCH,MEAN_MOTION,ECCENTRICITY,INCLINATION,RA_OF_ASC_NODE,ARG_OF_PERICENTER,MEAN_ANOMALY,EPHEMERIS_TYPE,CLASSIFICATION_TYPE,NORAD_CAT_ID,ELEMENT_SET_NO,REV_AT_EPOCH,BSTAR,MEAN_MOTION_DOT,MEAN_MOTION_DDOT
TDRS 13,2017-047A,2026-07-04T13:49:58.252224,1.00272315,.00150836,3.4557,3.1382,109.5403,5.9913,0,U,42915,999,3252,0,-.88E-6,0
QZS-3 (MICHIBIKI-3),2017-048A,2026-07-04T12:46:49.945728,1.00267692,.00021346,0.0786,131.5542,331.3400,138.3536,0,U,42917,999,3243,0,-.336E-5,0
AMAZONAS 5,2017-053A,2026-07-02T05:08:15.520128,1.00272699,.0001664,0.0325,325.1790,101.7064,229.4374,0,U,42934,999,3219,0,-.272E-5,0
ASIASAT 9,2017-057A,2026-07-03T07:40:19.360128,1.00263851,.00022817,0.0460,63.8286,35.1460,59.6195,0,U,42942,999,3202,0,0,0
INTELSAT 37E (IS-37E),2017-059A,2026-07-04T10:22:48.598752,1.00272693,.00027853,0.0185,41.4739,62.4481,316.2285,0,U,42950,999,3223,0,-.128E-5,0
BSAT-4A,2017-059B,2026-07-04T15:52:48.876384,1.00270043,.0003765,0.0344,345.4726,94.6101,190.6198,0,U,42951,999,3197,0,-.338E-5,0
QZS-4 (MICHIBIKI-4),2017-062A,2026-07-04T07:39:32.078592,1.00294227,.07469623,40.0992,343.2689,268.3445,284.0389,0,U,42965,999,3197,0,-.31E-5,0
SES-11 (ECHOSTAR 105),2017-063A,2026-07-04T13:23:23.299584,1.00271423,.00028524,0.0166,344.6289,119.0112,274.8289,0,U,42967,999,3189,0,-.77E-6,0
KOREASAT 5A,2017-067A,2026-07-03T21:39:54.526752,1.00268488,.000085,0.0214,306.4610,150.4844,263.0767,0,U,42984,999,3169,0,-.346E-5,0
ALCOMSAT 1,2017-078A,2026-07-02T17:17:08.674656,1.00270572,.0002552,0.0152,62.6702,34.5312,58.0257,0,U,43039,999,3145,0,-.176E-5,0
SBIRS GEO-3 (USA 282),2018-009A,2026-07-02T18:21:22.400640,1.00272730,.00022182,2.1946,12.8052,84.5660,299.3770,0,U,43162,999,3100,0,.138E-5,0
AL YAH 3,2018-012A,2026-07-03T22:23:35.991744,1.00270912,.00040134,1.5924,82.9211,17.9315,136.8797,0,U,43174,999,3101,0,-.145E-5,0
SES-14,2018-012B,2026-07-02T18:53:18.779424,1.00270755,.00012942,0.0127,27.7702,73.8319,55.0474,0,U,43175,999,718,0,-.268E-5,0
GOES 17,2018-022A,2026-07-04T13:27:45.381024,1.00271170,.00007036,0.9785,85.4405,51.4573,258.1135,0,U,43226,999,3059,0,-.17E-5,0
HISPASAT 30W-6,2018-023A,2026-07-02T15:33:04.320288,1.00271750,.00057968,0.0424,45.4228,35.4158,43.1160,0,U,43228,999,3056,0,-.205E-5,0
SUPERBIRD-B3,2018-033A,2026-07-02T18:10:23.453760,1.00272254,.00011931,0.0160,15.2519,88.0014,252.1498,0,U,43271,999,3021,0,-.81E-6,0
HYLAS 4,2018-033B,2026-07-02T18:57:18.396000,1.00268685,.00009742,0.0202,24.2276,121.2451,26.1743,0,U,43272,999,3022,0,0,0
IRNSS-1I,2018-035A,2026-07-03T18:23:38.522112,1.00278714,.00177113,28.7906,73.9396,182.9770,355.7923,0,U,43286,999,3024,0,.8E-6,0
USA 283,2018-036A,2026-07-01T11:14:42.491040,1.00269042,.0000064,0.0077,35.3198,9.2412,177.7500,0,U,43339,999,2543,0,0,0
COSMOS 2526,2018-037A,2026-07-03T04:16:28.964064,1.00268250,.00006676,0.0350,79.2804,199.1645,194.9126,0,U,43432,999,3012,0,-.334E-5,0
BANGABANDHUSAT-1,2018-044A,2026-07-04T14:27:13.713984,1.00272135,.00019394,0.0313,92.6454,14.2320,151.6462,0,U,43463,999,2988,0,-.35E-5,0
SES-12,2018-049A,2026-07-03T22:56:32.156736,1.00269259,.00005684,0.0119,5.3361,245.0675,110.7075,0,U,43488,999,2958,0,-.257E-5,0
FENGYUN 2H,2018-050A,2026-07-04T14:15:52.303968,1.00269200,.00018374,3.0736,78.8758,121.8191,15.1537,0,U,43491,999,2961,0,-.117E-5,0
BEIDOU-2 IGSO-7,2018-057A,2026-07-01T21:23:21.693984,1.00246939,.01049468,55.1981,162.9292,237.8611,308.6338,0,U,43539,999,2927,0,-.33E-6,0
TELSTAR 19V,2018-059A,2026-07-02T06:50:16.996416,1.00270343,.0003108,0.0294,140.3912,341.2792,198.2196,0,U,43562,999,2929,0,-.269E-5,0
TELKOM 4 (MERAH PUTIH),2018-064A,2026-07-04T15:49:09.365088,1.00269340,.00015692,0.0158,32.5537,103.8297,131.5813,0,U,43587,999,2905,0,0,0
TELSTAR 18V,2018-069A,2026-07-03T14:35:28.089600,1.00270999,.00020837,0.0214,294.5384,168.4918,175.4673,0,U,43611,999,2880,0,-.282E-5,0
AZERSPACE 2 (IS-38),2018-074A,2026-07-02T19:19:43.771008,1.00276723,.00018855,0.0228,36.6472,74.6484,144.5914,0,U,43632,999,2860,0,0,0
HORIZONS-3E,2018-074B,2026-07-02T16:29:49.898112,1.00271230,.00006023,0.0166,197.9110,85.7941,53.4880,0,U,43633,999,2849,0,-.2E-6,0
AEHF-4 (USA 288),2018-079A,2026-07-04T13:33:52.295040,1.00266885,.00596893,1.4372,5.3726,355.3135,57.7342,0,U,43651,999,2847,0,-.262E-5,0
BEIDOU-3 G1,2018-085A,2026-07-04T11:38:13.339104,1.00270819,.00085284,2.9098,96.9192,354.0213,166.0185,0,U,43683,999,2823,0,-.98E-6,0
